NORAD_CAT_ID,OBJECT_NAME,OBJECT_TYPE,EPOCH,MEAN_MOTION,ECCENTRICITY,INCLINATION,RA_OF_ASC_NODE,ARG_OF_PERICENTER,MEAN_ANOMALY,BSTAR,MEAN_MOTION_DOT,MEAN_MOTION_DDOT,TLE_LINE0,TLE_LINE1,TLE_LINE2,SEMIMAJOR_AXIS,PERIOD,APOGEE,PERIGEE,DECAYED
52986.0,STARLINK-4260,PAYLOAD,2024-05-26 17:03:02,15.08842166,0.0001269,53.2162,140.968,87.3708,272.743,6.7896e-05,7.93e-06,0.0,0 STARLINK-4260,1 52986U 22076A   24147.71044010  .00000793  00000-0  67896-4 0  9991,2 52986  53.2162 140.9680 0001269  87.3708 272.7430 15.08842166104416,6917.874,95.437,540.617,538.861,0.0
52986.0,STARLINK-4260,PAYLOAD,2024-05-27 05:46:07,15.08840874,0.0001307,53.2165,138.5897,85.5873,274.5268,8.633e-05,1.086e-05,0.0,0 STARLINK-4260,1 52986U 22076A   24148.24036036  .00001086  00000-0  86330-4 0  9999,2 52986  53.2165 138.5897 0001307  85.5873 274.5268 15.08840874104961,6917.878,95.437,540.647,538.839,0.0
52986.0,STARLINK-4260,PAYLOAD,2024-05-28 05:36:54,15.08840508,0.0001343,53.2162,134.1297,89.9063,270.2083,3.4874e-05,2.67e-06,0.0,0 STARLINK-4260,1 52986U 22076A   24149.23396084  .00000267  00000-0  34874-4 0  9997,2 52986  53.2162 134.1297 0001343  89.9063 270.2083 15.08840508104640,6917.879,95.438,540.673,538.815,0.0
52986.0,STARLINK-4260,PAYLOAD,2024-05-29 05:27:41,15.08838629,0.0001444,53.217,129.6696,103.6455,256.4698,4.1358e-05,3.7e-06,0.0,0 STARLINK-4260,1 52986U 22076A   24150.22756106  .00000370  00000-0  41358-4 0  9993,2 52986  53.2170 129.6696 0001444 103.6455 256.4698 15.08838629105260,6917.885,95.438,540.749,538.751,0.0
52986.0,STARLINK-4260,PAYLOAD,2024-05-29 22:56:55,15.08837675,0.0001416,53.2172,126.3986,99.1408,260.9744,5.3546e-05,5.64e-06,0.0,0 STARLINK-4260,1 52986U 22076A   24150.95620338  .00000564  00000-0  53546-4 0  9997,2 52986  53.2172 126.3986 0001416  99.1408 260.9744 15.08837675104906,6917.887,95.438,540.732,538.773,0.0
52986.0,STARLINK-4260,PAYLOAD,2024-05-30 05:18:28,15.08839842,0.0001425,53.2173,125.2101,103.2656,256.8496,6.5685e-05,7.58e-06,0.0,0 STARLINK-4260,1 52986U 22076A   24151.22116184  .00000758  00000-0  65685-4 0  9999,2 52986  53.2173 125.2101 0001425 103.2656 256.8496 15.08839842104946,6917.881,95.438,540.732,538.76,0.0
52986.0,STARLINK-4260,PAYLOAD,2024-05-30 21:12:19,15.08838609,0.0001503,53.2179,122.2392,107.7853,252.3304,6.5937e-05,7.62e-06,0.0,0 STARLINK-4260,1 52986U 22076A   24151.88356412  .00000762  00000-0  65937-4 0  9996,2 52986  53.2179 122.2392 0001503 107.7853 252.3304 15.08838609105519,6917.885,95.438,540.789,538.71,0.0
52986.0,STARLINK-4260,PAYLOAD,2024-05-31 06:44:39,15.08835398,0.0001426,53.2176,120.4508,100.5627,259.5526,4.4871e-05,4.26e-06,0.0,0 STARLINK-4260,1 52986U 22076A   24152.28100849  .00000426  00000-0  44871-4 0  9993,2 52986  53.2176 120.4508 0001426 100.5627 259.5526 15.08835398105101,6917.894,95.438,540.746,538.773,0.0
52986.0,STARLINK-4260,PAYLOAD,2024-06-01 14:32:22,15.08836804,0.0001417,53.2183,114.5042,90.8656,269.2498,4.0391e-05,3.55e-06,0.0,0 STARLINK-4260,1 52986U 22076A   24153.60581186  .00000355  00000-0  40391-4 0  9991,2 52986  53.2183 114.5042 0001417  90.8656 269.2498 15.08836804105300,6917.89,95.438,540.735,538.775,0.0
52986.0,STARLINK-4260,PAYLOAD,2024-06-02 06:26:12,15.08845224,0.0001364,53.2176,111.5289,88.7161,271.3987,0.00012584,1.716e-05,0.0,0 STARLINK-4260,1 52986U 22076A   24154.26820510  .00001716  00000-0  12584-3 0  9995,2 52986  53.2176 111.5289 0001364  88.7161 271.3987 15.08845224105875,6917.864,95.437,540.673,538.786,0.0
52986.0,STARLINK-4260,PAYLOAD,2024-06-02 20:44:41,15.08835312,0.0001395,53.2154,108.8521,84.9487,275.1664,7.0758e-05,8.38e-06,0.0,0 STARLINK-4260,1 52986U 22076A   24154.86437333  .00000838  00000-0  70758-4 0  9990,2 52986  53.2154 108.8521 0001395  84.9487 275.1664 15.08835312105963,6917.895,95.438,540.725,538.795,0.0
52986.0,STARLINK-4260,PAYLOAD,2024-06-03 14:13:56,15.08842096,0.0001337,53.2173,105.5814,91.7844,268.3301,8.644e-05,1.088e-05,0.0,0 STARLINK-4260,1 52986U 22076A   24155.59301107  .00001088  00000-0  86440-4 0  9993,2 52986  53.2173 105.5814 0001337  91.7844 268.3301 15.08842096105602,6917.874,95.437,540.664,538.814,0.0
52986.0,STARLINK-4260,PAYLOAD,2024-06-04 02:57:00,15.08850768,0.0001381,53.2171,103.2019,92.948,267.1671,0.00010828,1.436e-05,0.0,0 STARLINK-4260,1 52986U 22076A   24156.12292361  .00001436  00000-0  10828-3 0  9997,2 52986  53.2171 103.2019 0001381  92.9480 267.1671 15.08850768106153,6917.847,95.437,540.668,538.757,0.0
52986.0,STARLINK-4260,PAYLOAD,2024-06-04 20:26:15,15.08838946,0.0001389,53.2169,99.9315,94.0156,266.0995,4.9412e-05,4.99e-06,0.0,0 STARLINK-4260,1 52986U 22076A   24156.85157189  .00000499  00000-0  49412-4 0  9995,2 52986  53.2169  99.9315 0001389  94.0156 266.0995 15.08838946106264,6917.884,95.438,540.71,538.788,0.0
52986.0,STARLINK-4260,PAYLOAD,2024-06-05 05:58:34,15.08844301,0.0001467,53.218,98.1488,86.4068,273.7092,6.6821e-05,7.76e-06,0.0,0 STARLINK-4260,1 52986U 22076A   24157.24900795  .00000776  00000-0  66821-4 0  9999,2 52986  53.2180  98.1488 0001467  86.4068 273.7092 15.08844301105852,6917.867,95.437,540.747,538.717,0.0
52986.0,STARLINK-4260,PAYLOAD,2024-06-05 20:17:03,15.08838563,0.0001513,53.2168,95.4711,91.3641,268.7525,-2.7482e-05,-7.25e-06,0.0,0 STARLINK-4260,1 52986U 22076A   24157.84517425 -.00000725  00000-0 -27482-4 0  9995,2 52986  53.2168  95.4711 0001513  91.3641 268.7525 15.08838563105949,6917.885,95.438,540.796,538.703,0.0
52986.0,STARLINK-4260,PAYLOAD,2024-06-06 02:38:35,15.08844211,0.0001458,53.218,94.2802,93.2699,266.846,4.9618e-06,-2.09e-06,0.0,0 STARLINK-4260,1 52986U 22076A   24158.11012934 -.00000209  00000-0  49618-5 0  9993,2 52986  53.2180  94.2802 0001458  93.2699 266.8460 15.08844211106454,6917.868,95.437,540.741,538.724,0.0
52986.0,STARLINK-4260,PAYLOAD,2024-06-06 12:10:53,15.08844782,0.000143,53.2182,92.4963,92.3094,267.8062,7.1978e-06,-1.73e-06,0.0,0 STARLINK-4260,1 52986U 22076A   24158.50756854 -.00000173  00000-0  71978-5 0  9996,2 52986  53.2182  92.4963 0001430  92.3094 267.8062 15.08844782106040,6917.866,95.437,540.72,538.742,0.0
52986.0,STARLINK-4260,PAYLOAD,2024-06-06 18:32:26,15.08836063,0.0001445,53.2187,91.3112,91.9392,268.1766,5.2535e-05,5.48e-06,0.0,0 STARLINK-4260,1 52986U 22076A   24158.77253425  .00000548  00000-0  52535-4 0  9993,2 52986  53.2187  91.3112 0001445  91.9392 268.1766 15.08836063106555,6917.892,95.438,540.757,538.758,0.0
52986.0,STARLINK-4260,PAYLOAD,2024-06-08 02:20:09,15.08844679,0.0001476,53.2183,85.3654,105.77,254.3455,0.00011534,1.548e-05,0.0,0 STARLINK-4260,1 52986U 22076A   24160.09733104  .00001548  00000-0  11534-3 0  9992,2 52986  53.2183  85.3654 0001476 105.7700 254.3455 15.08844679106752,6917.866,95.437,540.752,538.71,0.0
52986.0,STARLINK-4260,PAYLOAD,2024-06-08 11:52:28,15.08844806,0.0001303,53.2179,83.5808,92.9126,267.2015,0.00010254,1.345e-05,0.0,0 STARLINK-4260,1 52986U 22076A   24160.49477115  .00001345  00000-0  10254-3 0  9996,2 52986  53.2179  83.5808 0001303  92.9126 267.2015 15.08844806106348,6917.866,95.437,540.632,538.829,0.0
52986.0,STARLINK-4260,PAYLOAD,2024-06-08 18:14:01,15.08835993,0.0002251,53.2189,82.3887,81.2247,278.9,4.3042e-05,3.97e-06,0.0,0 STARLINK-4260,1 52986U 22076A   24160.75974141  .00000397  00000-0  43042-4 0  9994,2 52986  53.2189  82.3887 0002251  81.2247 278.9000 15.08835993106857,6917.893,95.438,541.315,538.2,0.0
52986.0,STARLINK-4260,PAYLOAD,2024-06-09 02:10:56,15.08839286,0.0001674,53.2184,80.899,109.3705,250.7468,6.241e-05,7.05e-06,0.0,0 STARLINK-4260,1 52986U 22076A   24161.09093692  .00000705  00000-0  62410-4 0  9998,2 52986  53.2184  80.8990 0001674 109.3705 250.7468 15.08839286106438,6917.883,95.438,540.906,538.59,0.0
52986.0,STARLINK-4260,PAYLOAD,2024-06-09 18:04:49,15.08831122,0.000159,53.2188,77.9286,73.1389,286.9777,4.6696e-05,4.55e-06,0.0,0 STARLINK-4260,1 52986U 22076A   24161.75334803  .00000455  00000-0  46696-4 0  9993,2 52986  53.2188  77.9286 0001590  73.1389 286.9777 15.08831122107009,6917.908,95.438,540.872,538.673,0.0
52986.0,STARLINK-4260,PAYLOAD,2024-06-09 22:50:58,15.08840767,0.000146,53.2182,77.0373,78.4459,281.6697,-2.8306e-05,-7.38e-06,0.0,0 STARLINK-4260,1 52986U 22076A   24161.95206497 -.00000738  00000-0 -28306-4 0  9996,2 52986  53.2182  77.0373 0001460  78.4459 281.6697 15.08840767106561,6917.878,95.438,540.753,538.733,0.0
52986.0,STARLINK-4260,PAYLOAD,2024-06-10 02:01:44,15.0884328,0.0001516,53.2188,76.4424,97.548,262.5684,5.9655e-05,6.62e-06,0.0,0 STARLINK-4260,1 52986U 22076A   24162.08453986  .00000662  00000-0  59655-4 0  9993,2 52986  53.2188  76.4424 0001516  97.5480 262.5684 15.08843280107057,6917.87,95.437,540.784,538.687,0.0
52986.0,STARLINK-4260,PAYLOAD,2024-06-10 11:34:03,15.08840958,0.0001316,53.2159,74.6559,82.2063,277.9078,6.1764e-07,-2.78e-06,0.0,0 STARLINK-4260,1 52986U 22076A   24162.48198250 -.00000278  00000-0  61764-6 0  9997,2 52986  53.2159  74.6559 0001316  82.2063 277.9078 15.08840958106640,6917.877,95.437,540.653,538.832,0.0
52986.0,STARLINK-4260,PAYLOAD,2024-06-10 22:41:45,15.08834643,0.0001673,53.2175,72.576,81.4011,278.7171,0.00011683,1.572e-05,0.0,0 STARLINK-4260,1 52986U 22076A   24162.94566603  .00001572  00000-0  11683-3 0  9998,2 52986  53.2175  72.5760 0001673  81.4011 278.7171 15.08834643106714,6917.897,95.438,540.919,538.604,0.0
52986.0,STARLINK-4260,PAYLOAD,2024-06-11 00:17:08,15.08837167,0.0001652,53.2158,72.2769,82.798,277.32,0.00012449,1.694e-05,0.0,0 STARLINK-4260,1 52986U 22076A   24163.01190394  .00001694  00000-0  12449-3 0  9993,2 52986  53.2158  72.2769 0001652  82.7980 277.3200 15.08837167107192,6917.889,95.438,540.897,538.611,0.0
52986.0,STARLINK-4260,PAYLOAD,2024-06-11 11:24:49,15.08845286,0.0001372,53.2179,70.1959,93.5516,266.5633,0.00016405,2.324e-05,0.0,0 STARLINK-4260,1 52986U 22076A   24163.47557671  .00002324  00000-0  16405-3 0  9995,2 52986  53.2179  70.1959 0001372  93.5516 266.5633 15.08845286106793,6917.864,95.437,540.678,538.78,0.0
